STARLINK-5338           
1 55286U 23010T   24073.64817420 -.00001390  00000+0 -10875-3 0  9998
2 55286  70.0005  55.1294 0002833 270.8564  89.2270 14.98335971 64518
STARLINK-5341           
1 55287U 23010U   24074.19888487  .00000397  00000+0  41040-4 0  9994
2 55287  70.0016  33.8767 0002654 262.8749  97.2108 14.98333263 64775
STARLINK-5311           
1 55288U 23010V   24073.90285781  .00000164  00000+0  21495-4 0  9995
2 55288  70.0012  54.4088 0002842 270.9316  89.1517 14.98329184 64553
STARLINK-5320           
1 55289U 23010W   24073.91938794 -.00000494  00000+0 -33583-4 0  9995
2 55289  70.0008  54.4706 0002825 262.9808  97.1030 14.98329958 64552
STARLINK-5266           
1 55290U 23010X   24074.17809717 -.00000929  00000+0 -70055-4 0  9996
2 55290  69.9998  53.7672 0002780 263.7512  96.3331 14.98323296 64299
STARLINK-5327           
1 55291U 23010Y   24074.17824925 -.00000605  00000+0 -42948-4 0  9996
2 55291  70.0006  53.7670 0002587 254.6738 105.4135 14.98325077 64287
STARLINK-5325           
1 55292U 23010Z   24074.23231702  .00000033  00000+0  10585-4 0  9994
2 55292  70.0003  53.5529 0002864 269.2925  90.7906 14.98330484 64295
STARLINK-5287           
1 55293U 23010AA  24073.90269266  .00000261  00000+0  29690-4 0  9994
2 55293  70.0002  54.4094 0002901 268.9059  91.1768 14.98327820 64558
STARLINK-5286           
1 55294U 23010AB  24074.24089620  .00004191  00000+0  35886-3 0  9996
2 55294  69.9987  73.4480 0002863 272.7334  87.3497 14.98326877 63819
STARLINK-5293           
1 55295U 23010AC  24073.94883134  .00000361  00000+0  38040-4 0  9996
2 55295  69.9992  74.4400 0002937 269.8823  90.2000 14.98330724 64079
STARLINK-5285           
1 55296U 23010AD  24074.21979375  .00000236  00000+0  27539-4 0  9993
2 55296  69.9994  53.5064 0002997 269.8716  90.2100 14.98330379 64294
STARLINK-5284           
1 55297U 23010AE  24074.22814187  .00000132  00000+0  18885-4 0  9993
2 55297  70.0003  53.5378 0002838 270.1455  89.9379 14.98331761 64295
STARLINK-5272           
1 55298U 23010AF  24074.21161553 -.00000660  00000+0 -47530-4 0  9992
2 55298  69.9994  53.4780 0003067 270.9853  89.0955 14.98322428 64294
STARLINK-5270           
1 55299U 23010AG  24074.21562100  .00000035  00000+0  10740-4 0  9993
2 55299  70.0000  53.4943 0002871 268.4712  91.6118 14.98329553 64291
STARLINK-5308           
1 55300U 23010AH  24074.21144520  .00000537  00000+0  52829-4 0  9999
2 55300  69.9998  53.4780 0003031 265.7174  94.3638 14.98330933 64298
STARLINK-5321           
1 55302U 23010AK  24074.22396735  .00000327  00000+0  35180-4 0  9997
2 55302  69.9997  53.5194 0003078 269.3312  90.7494 14.98333545 64296
STARLINK-5322           
1 55303U 23010AL  24074.22836513  .00000340  00000+0  36306-4 0  9997
2 55303  69.9997  73.4067 0002899 271.9563  88.1264 14.98332946 63811
STARLINK-5318           
1 55304U 23010AM  24074.20727322 -.00000028  00000+0  54542-5 0  9990
2 55304  70.0001  53.4640 0002919 268.2209  91.8616 14.98328204 64292
STARLINK-5316           
1 55305U 23010AN  24074.20312497 -.00000014  00000+0  66310-5 0  9995
2 55305  70.0002  53.8555 0002914 268.3614  91.7211 14.98328653 64286
STARLINK-5295           
1 55306U 23010AP  24073.90664407  .00000288  00000+0  31935-4 0  9999
2 55306  70.0010  34.5469 0002701 270.4768  89.6082 14.98327917 65054
STARLINK-5288           
1 55307U 23010AQ  24073.91081731  .00000413  00000+0  42442-4 0  9999
2 55307  70.0012  34.5634 0002878 270.6827  89.4002 14.98330934 65057
STARLINK-5292           
1 55308U 23010AR  24073.95687210  .00000268  00000+0  30270-4 0  9992
2 55308  70.0016  34.3225 0002869 267.5388  92.5443 14.98327805 65937
STARLINK-5315           
1 55309U 23010AS  24074.17384781  .00000570  00000+0  55552-4 0  9991
2 55309  70.0007  33.8744 0002814 270.4172  89.6665 14.98330924 64772
STARLINK-5309           
1 55310U 23010AT  24074.16533063  .00001115  00000+0  10121-3 0  9999
2 55310  70.0009  33.8452 0003026 267.8625  92.2188 14.98337905 64777
STARLINK-5312           
1 55311U 23010AU  24073.90246919  .00000583  00000+0  56653-4 0  9991
2 55311  70.0009  34.5319 0002815 267.7985  92.2852 14.98329581 65928
STARLINK-5296           
1 55312U 23010AV  24074.20704001  .00000656  00000+0  62736-4 0  9997
2 55312  70.0013  33.4783 0002652 265.4014  94.6842 14.98331095 64785
STARLINK-5313           
1 55313U 23010AW  24074.22374449  .00000009  00000+0  85516-5 0  9993
2 55313  70.0011  33.6470 0002772 268.1629  91.9213 14.98333147 64786
STARLINK-5305           
1 55314U 23010AX  24074.22791902  .00000413  00000+0  42397-4 0  9999
2 55314  70.0008  33.6606 0002711 268.6769  91.4080 14.98332902 64782
STARLINK-4623           
1 55315U 23010AY  24073.90686673  .00000010  00000+0  86629-5 0  9992
2 55315  70.0006  54.4247 0002730 263.7563  96.3285 14.98327030 64543
STARLINK-5257           
1 55316U 23010AZ  24074.19870052 -.00000144  00000+0 -42416-5 0  9997
2 55316  70.0015  33.5769 0002781 269.3890  90.6950 14.98331527 64791
STARLINK-5265           
1 55317U 23010BA  24074.21957319  .00000147  00000+0  20101-4 0  9990
2 55317  70.0007  33.6608 0002756 269.0928  90.9916 14.98331521 64796
STARLINK-5180           
1 55318U 23010BB  24074.21539854 -.00000188  00000+0 -80088-5 0  9999
2 55318  70.0012  33.6185 0002470 271.4357  88.6519 14.98329150 64786
STARLINK-5196           
1 55319U 23010BC  24074.21122285  .00000320  00000+0  34567-4 0  9992
2 55319  70.0012  33.6065 0002686 263.7989  96.2864 14.98331822 64785
HAWK-6B                 
1 55324U 23011A   24073.74788451  .00004744  00000+0  29610-3 0  9995
2 55324  40.5175  81.6444 0006235 222.6027 137.4295 15.10077713 62468
HAWK-6C                 
1 55326U 23011C   24074.14429594  .00004639  00000+0  28969-3 0  9991
2 55326  40.4862  78.1995 0006546 219.9293 140.1031 15.10083538 62532
HAWK-6A                 
1 55327U 23011D   24073.74740351  .00004862  00000+0  30318-3 0  9993
2 55327  40.5021  81.0820 0006476 212.6405 147.4000 15.10077207 62473
STARLINK-5492           
1 55331U 23013A   24074.01047695 -.00000099  00000+0  77713-5 0  9993
2 55331  43.0030 283.8874 0001319 273.5489  86.5202 15.02548532 62973
STARLINK-5491           
1 55332U 23013B   24073.92649469  .00001175  00000+0  10204-3 0  9995
2 55332  43.0010 271.0931 0001026 276.1352  83.9374 15.02539166 62680
STARLINK-5493           
1 55333U 23013C   24073.93845575  .00004737  00000+0  36553-3 0  9995
2 55333  43.0023 284.2060 0001320 266.4092  93.6599 15.02529272 62532
STARLINK-5652           
1 55334U 23013D   24074.05415938  .00002323  00000+0  19089-3 0  9990
2 55334  43.0008 281.5735 0001184 270.8566  89.2141 15.01732770 63003
STARLINK-5660           
1 55335U 23013E   24073.93512589  .00009607  00000+0  72477-3 0  9999
2 55335  43.0015 284.1781 0001235 266.7420  93.3281 15.02562055 62538
STARLINK-5655           
1 55336U 23013F   24073.98297525  .00003247  00000+0  25525-3 0  9991
2 55336  43.0005 270.5795 0001295 269.3968  90.6726 15.02543505 63123
STARLINK-5667           
1 55337U 23013G   24073.98187243  .00000441  00000+0  47686-4 0  9993
2 55337  43.0006 270.6154 0001054 279.3749  80.6974 15.02532707 63122
STARLINK-5658           
1 55338U 23013H   24073.93289628  .00007507  00000+0  57001-3 0  9990
2 55338  43.0011 284.1622 0001427 273.5566  86.5113 15.02549911 62535
STARLINK-5671           
1 55339U 23013J   24073.92734884  .00001505  00000+0  12640-3 0  9991
2 55339  42.9999 284.1183 0001159 279.6164  80.4548 15.02542166 62534
STARLINK-5675           
1 55340U 23013K   24074.05808375  .00003247  00000+0  25528-3 0  9999
2 55340  43.0042 283.3771 0001281 263.4482  96.6215 15.02542606 62989
STARLINK-5670           
1 55341U 23013L   24073.92956883  .00000636  00000+0  62135-4 0  9998
2 55341  43.0006 284.1365 0001369 266.0500  94.0185 15.02536791 62532
STARLINK-5657           
1 55342U 23013M   24073.92404124  .00012163  00000+0  91372-3 0  9997
2 55342  43.0005 284.0931 0001231 281.8385  78.2319 15.02542323 62535
STARLINK-5661           
1 55343U 23013N   24073.91846813  .00003676  00000+0  28702-3 0  9998
2 55343  43.0014 284.0523 0001351 270.1835  89.8852 15.02544925 62537
STARLINK-5662           
1 55344U 23013P   24074.05365127  .00000653  00000+0  63397-4 0  9991
2 55344  43.0024 283.3462 0001354 265.3078  94.7609 15.02549028 62984
STARLINK-5653           
1 55345U 23013Q   24073.85224452  .00004593  00000+0  35475-3 0  9996
2 55345  43.0001 271.3902 0000966 270.2050  89.8682 15.02546103 62672
STARLINK-5631           
1 55346U 23013R   24073.84866604  .00012225  00000+0  91754-3 0  9990
2 55346  43.0013 284.3892 0001931 268.4548  91.6073 15.02572739 62525
STARLINK-5663           
1 55347U 23013S   24074.03700829  .00010037  00000+0  75662-3 0  9998
2 55347  43.0022 283.2195 0001707 276.2794  83.7854 15.02556723 62985
STARLINK-5609           
1 55348U 23013T   24073.71348525  .00002691  00000+0  21417-3 0  9990
2 55348  43.0014 285.0933 0001402 267.4513  92.6169 15.02542623 62500
STARLINK-5666           
1 55349U 23013U   24073.84311113  .00000892  00000+0  81090-4 0  9993
2 55349  43.0026 284.3466 0001226 273.4934  86.5768 15.02542388 62522
STARLINK-5668           
1 55350U 23013V   24073.70682670  .00003023  00000+0  23872-3 0  9991
2 55350  43.0008 285.0428 0001483 266.8046  93.2627 15.02540660 62503
STARLINK-5659           
1 55351U 23013W   24073.89515396 -.00000160  00000+0  32399-5 0  9998
2 55351  43.0011 283.8757 0000722 223.1460 136.9325 15.02552599 62964
STARLINK-5547           
1 55352U 23013X   24074.03366198  .00001641  00000+0  13650-3 0  9991
2 55352  43.0026 283.1970 0001223 276.0183  84.0520 15.02544614 62988
STARLINK-5608           
1 55353U 23013Y   24073.94721211  .00001510  00000+0  12680-3 0  9999
2 55353  43.0023 283.4087 0001046 276.7850  83.2874 15.02539497 62547
